OSCAR 31                
1 19420U 88074B   26062.85489094  .00000093  00000+0  14444-3 0  9997
2 19420  90.0425  20.8807 0094867  10.3539  50.4788 13.42596792837398
