[{"OBJECT_NAME":"OSCAR 31","OBJECT_ID":"1988-074B","EPOCH":"2026-03-03T20:31:02.577216","MEAN_MOTION":13.42596792,"ECCENTRICITY":0.0094867,"INCLINATION":90.0425,"RA_OF_ASC_NODE":20.8807,"ARG_OF_PERICENTER":10.3539,"MEAN_ANOMALY":50.4788,"EPHEMERIS_TYPE":0,"CLASSIFICATION_TYPE":"U","NORAD_CAT_ID":19420,"ELEMENT_SET_NO":999,"REV_AT_EPOCH":83739,"BSTAR":0.00014444,"MEAN_MOTION_DOT":9.3e-7,"MEAN_MOTION_DDOT":0}]
